*******************************************************************************
 Revised: July 31, 2013             Moon / (Earth)                          301
 
 GEOPHYSICAL DATA (updated 2018-Aug-15):
  Vol. mean radius, km  = 1737.53+-0.03    Mass, x10^22 kg       =    7.349
  Radius (gravity), km  = 1738.0           Surface emissivity    =    0.92
  Radius (IAU), km      = 1737.4           GM, km^3/s^2          = 4902.800066
  Density, g/cm^3       =    3.3437        GM 1-sigma, km^3/s^2  =  +-0.0001  
  V(1,0)                =   +0.21          Surface accel., m/s^2 =    1.62
  Earth/Moon mass ratio = 81.3005690769    Farside crust. thick. = ~80 - 90 km
  Mean crustal density  = 2.97+-.07 g/cm^3 Nearside crust. thick.= 58+-8 km 
  Heat flow, Apollo 15  = 3.1+-.6 mW/m^2   Mean angular diameter = 31'05.2"
  Heat flow, Apollo 17  = 2.2+-.5 mW/m^2   Sid. rot. rate, rad/s = 0.0000026617
  Geometric Albedo      = 0.12             Mean solar day        = 29.5306 d
  Obliquity to orbit    = 6.67 deg         Orbit period          = 27.321582 d
  Semi-major axis, a    = 384400 km        Eccentricity          = 0.05490
  Mean motion, rad/s    = 2.6616995x10^-6  Inclination           = 5.145 deg
  Apsidal period        = 3231.50 d        Nodal period          = 6798.38 d
                                 Perihelion  Aphelion    Mean
  Solar Constant (W/m^2)         1414+-7     1323+-7     1368+-7
  Maximum Planetary IR (W/m^2)   1314        1226        1268
  Minimum Planetary IR (W/m^2)      5.2         5.2         5.2
********************************************************************************


*******************************************************************************
Ephemeris / WWW_USER Mon Dec 30 22:15:41 2024 Pasadena, USA      / Horizons    
*******************************************************************************
Target body name: Moon (301)                      {source: DE441}
Center body name: Earth (399)                     {source: DE441}
Center-site name: (user defined site below)
*******************************************************************************
Start time      : A.D. 2024-Apr-08 12:00:00.0000 UT-05:00
Stop  time      : A.D. 2024-Apr-08 16:00:00.0000 UT-05:00
Step-size       : 2000 steps
*******************************************************************************
Target pole/equ : MOON_ME                         {East-longitude positive}
Target radii    : 1737.4, 1737.4, 1737.4 km       {Equator_a, b, pole_c}       
Center geodetic : 267.5579, 35.0887, .099         {E-lon(deg),Lat(deg),Alt(km)}
Center cylindric: 267.5579,5224.85733,3645.98031  {E-lon(deg),Dxy(km),Dz(km)}
Center pole/equ : ITRF93                          {East-longitude positive}
Center radii    : 6378.137, 6378.137, 6356.752 km {Equator_a, b, pole_c}       
Target primary  : Earth
Vis. interferer : MOON (R_eq= 1737.400) km        {source: DE441}
Rel. light bend : Sun                             {source: DE441}
Rel. lght bnd GM: 1.3271E+11 km^3/s^2                                          
Atmos refraction: NO (AIRLESS)
RA format       : HMS
Time format     : CAL 
Calendar mode   : Mixed Julian/Gregorian
Time zone       : UT-05:00
RTS-only print  : NO       
EOP file        : eop.241230.p250328                                           
EOP coverage    : DATA-BASED 1962-JAN-20 TO 2024-DEC-30. PREDICTS-> 2025-MAR-27
Units conversion: 1 au= 149597870.700 km, c= 299792.458 km/s, 1 day= 86400.0 s 
Table cut-offs 1: Elevation (-90.0deg=NO ),Airmass (>38.000=NO), Daylight (NO )
Table cut-offs 2: Solar elongation (  0.0,180.0=NO ),Local Hour Angle( 0.0=NO )
Table cut-offs 3: RA/DEC angular rate (     0.0=NO )                           
****************************************************************************************************************************************************************************************************************
 Date_(ZONE)_HR:MN:SC.fff     R.A._____(ICRF)_____DEC    APmag   S-brt  Ang-diam             delta      deldot     S-O-T /r     S-T-O    PsAng   PsAMV  Sky_motion  Sky_mot_PA  RelVel-ANG  Lun_Sky_Brt  sky_SNR
****************************************************************************************************************************************************************************************************************
$$SOE
 2024-Apr-08 14:03:07.200 *m  01 10 41.14 +07 31 33.2   -4.029  -3.690  2022.860  0.00236845713364   0.0992612    0.0695 /T  179.9304   43.555  67.930   27.131479   50.479472   7.2769770         n.a.     n.a.
 2024-Apr-08 14:03:14.400 *m  01 10 41.30 +07 31 35.2   -4.030  -3.666  2022.856  0.00236846191540   0.0994444    0.0704 /T  179.9296   43.617  67.930   27.131989   50.483146   7.2901291         n.a.     n.a.
 2024-Apr-08 14:03:21.600 *m  01 10 41.47 +07 31 37.3   -4.030  -3.643  2022.851  0.00236846670598   0.0996277    0.0712 /T  179.9288   43.677  67.930   27.132502   50.486825   7.3032776         n.a.     n.a.
 2024-Apr-08 14:03:28.800 *m  01 10 41.64 +07 31 39.4   -4.030  -3.619  2022.847  0.00236847150538   0.0998110    0.0720 /T  179.9280   43.736  67.931   27.133018   50.490508   7.3164223         n.a.     n.a.
 2024-Apr-08 14:03:36.000 *m  01 10 41.81 +07 31 41.5   -4.030  -3.596  2022.843  0.00236847631361   0.0999942    0.0728 /T  179.9271   43.794  67.931   27.133536   50.494196   7.3295634         n.a.     n.a.
 2024-Apr-08 14:03:43.200 *m  01 10 41.98 +07 31 43.5   -4.030  -3.573  2022.839  0.00236848113065   0.1001774    0.0737 /T  179.9263   43.850  67.931   27.134057   50.497888   7.3427008         n.a.     n.a.
 2024-Apr-08 14:03:50.400 *m  01 10 42.15 +07 31 45.6   -4.030  -3.551  2022.835  0.00236848595650   0.1003606    0.0745 /T  179.9255   43.905  67.931   27.134581   50.501585   7.3558344         n.a.     n.a.
 2024-Apr-08 14:03:57.600 *m  01 10 42.32 +07 31 47.7   -4.030  -3.529  2022.831  0.00236849079117   0.1005437    0.0753 /T  179.9247   43.959  67.931   27.135107   50.505286   7.3689644         n.a.     n.a.
 2024-Apr-08 14:04:04.800 *m  01 10 42.49 +07 31 49.7   -4.030  -3.506  2022.827  0.00236849563466   0.1007268    0.0761 /T  179.9238   44.012  67.931   27.135636   50.508991   7.3820906         n.a.     n.a.
 2024-Apr-08 14:04:12.000 *m  01 10 42.65 +07 31 51.8   -4.030  -3.485  2022.823  0.00236850048696   0.1009100    0.0770 /T  179.9230   44.064  67.931   27.136167   50.512701   7.3952131         n.a.     n.a.
 2024-Apr-08 14:04:19.200 *m  01 10 42.82 +07 31 53.9   -4.030  -3.463  2022.818  0.00236850534807   0.1010930    0.0778 /T  179.9222   44.115  67.931   27.136701   50.516416   7.4083318         n.a.     n.a.
 2024-Apr-08 14:04:26.400 *m  01 10 42.99 +07 31 56.0   -4.031  -3.441  2022.814  0.00236851021800   0.1012761    0.0786 /T  179.9213   44.165  67.931   27.137238   50.520135   7.4214468         n.a.     n.a.
 2024-Apr-08 14:04:33.600 *m  01 10 43.16 +07 31 58.0   -4.031  -3.420  2022.810  0.00236851509673   0.1014591    0.0794 /T  179.9205   44.214  67.931   27.137777   50.523858   7.4345581         n.a.     n.a.
 2024-Apr-08 14:04:40.800 *m  01 10 43.33 +07 32 00.1   -4.031  -3.399  2022.806  0.00236851998427   0.1016422    0.0803 /T  179.9197   44.261  67.932   27.138319   50.527586   7.4476656         n.a.     n.a.
 2024-Apr-08 14:04:48.000 *m  01 10 43.50 +07 32 02.2   -4.031  -3.378  2022.802  0.00236852488062   0.1018252    0.0811 /T  179.9189   44.308  67.932   27.138864   50.531318   7.4607693         n.a.     n.a.
 2024-Apr-08 14:04:55.200 *m  01 10 43.67 +07 32 04.2   -4.031  -3.358  2022.798  0.00236852978578   0.1020081    0.0819 /T  179.9180   44.354  67.932   27.139411   50.535055   7.4738692         n.a.     n.a.
 2024-Apr-08 14:05:02.400 *m  01 10 43.84 +07 32 06.3   -4.031  -3.337  2022.793  0.00236853469974   0.1021911    0.0827 /T  179.9172   44.399  67.932   27.139960   50.538796   7.4869654         n.a.     n.a.
 2024-Apr-08 14:05:09.600 *m  01 10 44.01 +07 32 08.4   -4.031  -3.317  2022.789  0.00236853962251   0.1023740    0.0836 /T  179.9164   44.444  67.932   27.140513   50.542542   7.5000577         n.a.     n.a.
 2024-Apr-08 14:05:16.800 *m  01 10 44.18 +07 32 10.5   -4.031  -3.297  2022.785  0.00236854455408   0.1025569    0.0844 /T  179.9156   44.487  67.932   27.141068   50.546292   7.5131462         n.a.     n.a.
 2024-Apr-08 14:05:24.000 *m  01 10 44.34 +07 32 12.5   -4.031  -3.277  2022.781  0.00236854949445   0.1027398    0.0852 /T  179.9147   44.530  67.932   27.141625   50.550046   7.5262310         n.a.     n.a.
 2024-Apr-08 14:05:31.200 *m  01 10 44.51 +07 32 14.6   -4.031  -3.257  2022.777  0.00236855444363   0.1029226    0.0860 /T  179.9139   44.572  67.932   27.142186   50.553805   7.5393119         n.a.     n.a.
 2024-Apr-08 14:05:38.400 *m  01 10 44.68 +07 32 16.7   -4.031  -3.238  2022.772  0.00236855940160   0.1031055    0.0869 /T  179.9131   44.613  67.932   27.142749   50.557569   7.5523889         n.a.     n.a.
 2024-Apr-08 14:05:45.600 *m  01 10 44.85 +07 32 18.7   -4.032  -3.218  2022.768  0.00236856436838   0.1032883    0.0877 /T  179.9123   44.653  67.932   27.143314   50.561336   7.5654622         n.a.     n.a.
 2024-Apr-08 14:05:52.800 *m  01 10 45.02 +07 32 20.8   -4.032  -3.199  2022.764  0.00236856934395   0.1034711    0.0885 /T  179.9114   44.693  67.933   27.143882   50.565108   7.5785316         n.a.     n.a.
 2024-Apr-08 14:06:00.000 *m  01 10 45.19 +07 32 22.9   -4.032  -3.180  2022.760  0.00236857432832   0.1036538    0.0893 /T  179.9106   44.732  67.933   27.144453   50.568885   7.5915971         n.a.     n.a.
 2024-Apr-08 14:06:07.200 *m  01 10 45.36 +07 32 25.0   -4.032  -3.161  2022.755  0.00236857932148   0.1038366    0.0902 /T  179.9098   44.770  67.933   27.145026   50.572666   7.6046588         n.a.     n.a.
 2024-Apr-08 14:06:14.400 *m  01 10 45.53 +07 32 27.0   -4.032  -3.143  2022.751  0.00236858432344   0.1040193    0.0910 /T  179.9089   44.808  67.933   27.145602   50.576452   7.6177166         n.a.     n.a.
